TJS-23                  
1 67226U 25306A   26017.01829867  .00000042  00000+0  00000+0 0  9990
2 67226   5.9313 298.2657 0000795  69.8322 290.4117  1.00270700   377
CZ-5 R/B                
1 67227U 25306B   26016.73403638  .00008562  00000+0  23018-2 0  9995
2 67227  16.2590 290.0061 7577745 195.7219 111.0043  1.92563067   541
QPS-SAR-15              
1 67228U 25307A   26017.91596946  .00004766  00000+0  41827-3 0  9994
2 67228  42.0084 332.2179 0007681  91.6528 268.5177 14.97392380  4146
ELECTRON R/B            
1 67229U 25307B   26017.52790539  .01244265  78744-5  16308-2 0  9998
2 67229  41.9911 316.7755 0122782  78.9326 282.5313 15.92760716  4286
SPACEMOBILE-006         
1 67232U 25309A   26017.87814412 -.00000721  00000+0 -19535-4 0  9998
2 67232  52.9980 299.6720 0012167  37.2839 322.8997 15.17745285  3760
LVM3 R/B                
1 67233U 25309B   26017.98011055  .00007626  00000+0  36658-3 0  9996
2 67233  52.9296 298.6264 0011992  62.1801 298.0406 15.19717638  3788
2025-310A               
1 67234U 25310A   26017.97749172  .00000028  00000+0  11516-4 0  9992
2 67234  97.9664  27.4417 0002157 170.0956 190.0296 14.75704219  3474
SL-4 R/B                
1 67235U 25310B   26017.76288389  .00277287  24575-5  56123-3 0  9992
2 67235  97.9612  29.8875 0257855 352.4511   7.2892 15.60971201  3600
HULIANWANG DIGUI-128    
1 67236U 25311A   26017.86365294 -.00000020  00000+0  10281-3 0  9992
2 67236  50.0040 304.5316 0004253 141.3298 218.7905 13.89076170  3196
HULIANWANG DIGUI-129    
1 67237U 25311B   26017.93716339 -.00000026  00000+0  98272-4 0  9994
2 67237  50.0058 304.2778 0003544  11.4404 348.6574 13.88788002  3203
HULIANWANG DIGUI-130    
1 67238U 25311C   26017.94509087 -.00000017  00000+0  10729-3 0  9996
2 67238  50.0071 304.3181 0004384 339.5994  20.4728 13.87898371  3205
HULIANWANG DIGUI-131    
1 67239U 25311D   26017.94841178 -.00000022  00000+0  10332-3 0  9993
2 67239  50.0071 304.3342 0006125 344.7571  15.3142 13.87748761  3209
