CCSDS_OMM_VERS = 2.0
CREATION_DATE  = 
ORIGINATOR     = 

OBJECT_NAME    = TJS-23
OBJECT_ID      = 2025-306A
CENTER_NAME    = EARTH
REF_FRAME      = TEME
TIME_SYSTEM    = UTC
MEAN_ELEMENT_THEORY = SGP/SGP4

EPOCH          = 2026-01-17T00:26:21.005088
MEAN_MOTION    = 1.00270700
ECCENTRICITY   = .00007955
INCLINATION    = 5.9313
RA_OF_ASC_NODE = 298.2657
ARG_OF_PERICENTER = 69.8322
MEAN_ANOMALY   = 290.4117

EPHEMERIS_TYPE = 0
CLASSIFICATION_TYPE = U
NORAD_CAT_ID   = 67226
ELEMENT_SET_NO = 999
REV_AT_EPOCH   = 37
BSTAR          = 0
MEAN_MOTION_DOT = .42E-6
MEAN_MOTION_DDOT = 0

CCSDS_OMM_VERS = 2.0
CREATION_DATE  = 
ORIGINATOR     = 

OBJECT_NAME    = CZ-5 R/B
OBJECT_ID      = 2025-306B
CENTER_NAME    = EARTH
REF_FRAME      = TEME
TIME_SYSTEM    = UTC
MEAN_ELEMENT_THEORY = SGP/SGP4

EPOCH          = 2026-01-16T17:37:00.743232
MEAN_MOTION    = 1.92563067
ECCENTRICITY   = .75777454
INCLINATION    = 16.2590
RA_OF_ASC_NODE = 290.0061
ARG_OF_PERICENTER = 195.7219
MEAN_ANOMALY   = 111.0043

EPHEMERIS_TYPE = 0
CLASSIFICATION_TYPE = U
NORAD_CAT_ID   = 67227
ELEMENT_SET_NO = 999
REV_AT_EPOCH   = 54
BSTAR          = .23017527E-2
MEAN_MOTION_DOT = .8562E-4
MEAN_MOTION_DDOT = 0

CCSDS_OMM_VERS = 2.0
CREATION_DATE  = 
ORIGINATOR     = 

OBJECT_NAME    = QPS-SAR-15
OBJECT_ID      = 2025-307A
CENTER_NAME    = EARTH
REF_FRAME      = TEME
TIME_SYSTEM    = UTC
MEAN_ELEMENT_THEORY = SGP/SGP4

EPOCH          = 2026-01-17T21:58:59.761344
MEAN_MOTION    = 14.97392380
ECCENTRICITY   = .00076818
INCLINATION    = 42.0084
RA_OF_ASC_NODE = 332.2179
ARG_OF_PERICENTER = 91.6528
MEAN_ANOMALY   = 268.5177

EPHEMERIS_TYPE = 0
CLASSIFICATION_TYPE = U
NORAD_CAT_ID   = 67228
ELEMENT_SET_NO = 999
REV_AT_EPOCH   = 414
BSTAR          = .41826845E-3
MEAN_MOTION_DOT = .4766E-4
MEAN_MOTION_DDOT = 0

CCSDS_OMM_VERS = 2.0
CREATION_DATE  = 
ORIGINATOR     = 

OBJECT_NAME    = ELECTRON R/B
OBJECT_ID      = 2025-307B
CENTER_NAME    = EARTH
REF_FRAME      = TEME
TIME_SYSTEM    = UTC
MEAN_ELEMENT_THEORY = SGP/SGP4

EPOCH          = 2026-01-17T12:40:11.025696
MEAN_MOTION    = 15.92760716
ECCENTRICITY   = .01227825
INCLINATION    = 41.9911
RA_OF_ASC_NODE = 316.7755
ARG_OF_PERICENTER = 78.9326
MEAN_ANOMALY   = 282.5313

EPHEMERIS_TYPE = 0
CLASSIFICATION_TYPE = U
NORAD_CAT_ID   = 67229
ELEMENT_SET_NO = 999
REV_AT_EPOCH   = 428
BSTAR          = .16307666E-2
MEAN_MOTION_DOT = .1244265E-1
MEAN_MOTION_DDOT = .7874426E-5

CCSDS_OMM_VERS = 2.0
CREATION_DATE  = 
ORIGINATOR     = 

OBJECT_NAME    = SPACEMOBILE-006
OBJECT_ID      = 2025-309A
CENTER_NAME    = EARTH
REF_FRAME      = TEME
TIME_SYSTEM    = UTC
MEAN_ELEMENT_THEORY = SGP/SGP4

EPOCH          = 2026-01-17T21:04:31.651968
MEAN_MOTION    = 15.17745285
ECCENTRICITY   = .00121674
INCLINATION    = 52.9980
RA_OF_ASC_NODE = 299.6720
ARG_OF_PERICENTER = 37.2839
MEAN_ANOMALY   = 322.8997

EPHEMERIS_TYPE = 0
CLASSIFICATION_TYPE = U
NORAD_CAT_ID   = 67232
ELEMENT_SET_NO = 999
REV_AT_EPOCH   = 376
BSTAR          = -.1953538E-4
MEAN_MOTION_DOT = -.721E-5
MEAN_MOTION_DDOT = 0

CCSDS_OMM_VERS = 2.0
CREATION_DATE  = 
ORIGINATOR     = 

OBJECT_NAME    = LVM3 R/B
OBJECT_ID      = 2025-309B
CENTER_NAME    = EARTH
REF_FRAME      = TEME
TIME_SYSTEM    = UTC
MEAN_ELEMENT_THEORY = SGP/SGP4

EPOCH          = 2026-01-17T23:31:21.551520
MEAN_MOTION    = 15.19717638
ECCENTRICITY   = .00119927
INCLINATION    = 52.9296
RA_OF_ASC_NODE = 298.6264
ARG_OF_PERICENTER = 62.1801
MEAN_ANOMALY   = 298.0406

EPHEMERIS_TYPE = 0
CLASSIFICATION_TYPE = U
NORAD_CAT_ID   = 67233
ELEMENT_SET_NO = 999
REV_AT_EPOCH   = 378
BSTAR          = .36658031E-3
MEAN_MOTION_DOT = .7626E-4
MEAN_MOTION_DDOT = 0

CCSDS_OMM_VERS = 2.0
CREATION_DATE  = 
ORIGINATOR     = 

OBJECT_NAME    = 2025-310A
OBJECT_ID      = 2025-310A
CENTER_NAME    = EARTH
REF_FRAME      = TEME
TIME_SYSTEM    = UTC
MEAN_ELEMENT_THEORY = SGP/SGP4

EPOCH          = 2026-01-17T23:27:35.284608
MEAN_MOTION    = 14.75704219
ECCENTRICITY   = .00021572
INCLINATION    = 97.9664
RA_OF_ASC_NODE = 27.4417
ARG_OF_PERICENTER = 170.0956
MEAN_ANOMALY   = 190.0296

EPHEMERIS_TYPE = 0
CLASSIFICATION_TYPE = U
NORAD_CAT_ID   = 67234
ELEMENT_SET_NO = 999
REV_AT_EPOCH   = 347
BSTAR          = .11516219E-4
MEAN_MOTION_DOT = .28E-6
MEAN_MOTION_DDOT = 0

CCSDS_OMM_VERS = 2.0
CREATION_DATE  = 
ORIGINATOR     = 

OBJECT_NAME    = SL-4 R/B
OBJECT_ID      = 2025-310B
CENTER_NAME    = EARTH
REF_FRAME      = TEME
TIME_SYSTEM    = UTC
MEAN_ELEMENT_THEORY = SGP/SGP4

EPOCH          = 2026-01-17T18:18:33.168096
MEAN_MOTION    = 15.60971201
ECCENTRICITY   = .02578557
INCLINATION    = 97.9612
RA_OF_ASC_NODE = 29.8875
ARG_OF_PERICENTER = 352.4511
MEAN_ANOMALY   = 7.2892

EPHEMERIS_TYPE = 0
CLASSIFICATION_TYPE = U
NORAD_CAT_ID   = 67235
ELEMENT_SET_NO = 999
REV_AT_EPOCH   = 360
BSTAR          = .56122812E-3
MEAN_MOTION_DOT = .277287E-2
MEAN_MOTION_DDOT = .2457522E-5

CCSDS_OMM_VERS = 2.0
CREATION_DATE  = 
ORIGINATOR     = 

OBJECT_NAME    = HULIANWANG DIGUI-128
OBJECT_ID      = 2025-311A
CENTER_NAME    = EARTH
REF_FRAME      = TEME
TIME_SYSTEM    = UTC
MEAN_ELEMENT_THEORY = SGP/SGP4

EPOCH          = 2026-01-17T20:43:39.614016
MEAN_MOTION    = 13.89076170
ECCENTRICITY   = .00042537
INCLINATION    = 50.0040
RA_OF_ASC_NODE = 304.5316
ARG_OF_PERICENTER = 141.3298
MEAN_ANOMALY   = 218.7905

EPHEMERIS_TYPE = 0
CLASSIFICATION_TYPE = U
NORAD_CAT_ID   = 67236
ELEMENT_SET_NO = 999
REV_AT_EPOCH   = 319
BSTAR          = .10280721E-3
MEAN_MOTION_DOT = -.2E-6
MEAN_MOTION_DDOT = 0

CCSDS_OMM_VERS = 2.0
CREATION_DATE  = 
ORIGINATOR     = 

OBJECT_NAME    = HULIANWANG DIGUI-129
OBJECT_ID      = 2025-311B
CENTER_NAME    = EARTH
REF_FRAME      = TEME
TIME_SYSTEM    = UTC
MEAN_ELEMENT_THEORY = SGP/SGP4

EPOCH          = 2026-01-17T22:29:30.916896
MEAN_MOTION    = 13.88788002
ECCENTRICITY   = .00035441
INCLINATION    = 50.0058
RA_OF_ASC_NODE = 304.2778
ARG_OF_PERICENTER = 11.4404
MEAN_ANOMALY   = 348.6574

EPHEMERIS_TYPE = 0
CLASSIFICATION_TYPE = U
NORAD_CAT_ID   = 67237
ELEMENT_SET_NO = 999
REV_AT_EPOCH   = 320
BSTAR          = .9827208E-4
MEAN_MOTION_DOT = -.26E-6
MEAN_MOTION_DDOT = 0

CCSDS_OMM_VERS = 2.0
CREATION_DATE  = 
ORIGINATOR     = 

OBJECT_NAME    = HULIANWANG DIGUI-130
OBJECT_ID      = 2025-311C
CENTER_NAME    = EARTH
REF_FRAME      = TEME
TIME_SYSTEM    = UTC
MEAN_ELEMENT_THEORY = SGP/SGP4

EPOCH          = 2026-01-17T22:40:55.851168
MEAN_MOTION    = 13.87898371
ECCENTRICITY   = .00043842
INCLINATION    = 50.0071
RA_OF_ASC_NODE = 304.3181
ARG_OF_PERICENTER = 339.5994
MEAN_ANOMALY   = 20.4728

EPHEMERIS_TYPE = 0
CLASSIFICATION_TYPE = U
NORAD_CAT_ID   = 67238
ELEMENT_SET_NO = 999
REV_AT_EPOCH   = 320
BSTAR          = .10728919E-3
MEAN_MOTION_DOT = -.17E-6
MEAN_MOTION_DDOT = 0

CCSDS_OMM_VERS = 2.0
CREATION_DATE  = 
ORIGINATOR     = 

OBJECT_NAME    = HULIANWANG DIGUI-131
OBJECT_ID      = 2025-311D
CENTER_NAME    = EARTH
REF_FRAME      = TEME
TIME_SYSTEM    = UTC
MEAN_ELEMENT_THEORY = SGP/SGP4

EPOCH          = 2026-01-17T22:45:42.777792
MEAN_MOTION    = 13.87748761
ECCENTRICITY   = .00061256
INCLINATION    = 50.0071
RA_OF_ASC_NODE = 304.3342
ARG_OF_PERICENTER = 344.7571
MEAN_ANOMALY   = 15.3142

EPHEMERIS_TYPE = 0
CLASSIFICATION_TYPE = U
NORAD_CAT_ID   = 67239
ELEMENT_SET_NO = 999
REV_AT_EPOCH   = 320
BSTAR          = .10332071E-3
MEAN_MOTION_DOT = -.22E-6
MEAN_MOTION_DDOT = 0

